{"type": "FeatureCollection", "features": [ {"type": "Feature", "properties": {"norad_id": 66525, "name": "STARLINK-35975", "group": "last-30-days", "lat": 22.17821044042775, "lon": 70.30896215701976, "alt_km": 440.37729355109514, "timestamp": "2025-12-14T09:36:21.778257+00:00", "meta": {"OBJECT_NAME": "STARLINK-35975", "OBJECT_ID": "2025-265K", "EPOCH": "2025-12-13T14:00:03.000384", "MEAN_MOTION": 15.44149828, "ECCENTRICITY": 0.00011718, "INCLINATION": 43.0009, "RA_OF_ASC_NODE": 49.0878, "ARG_OF_PERICENTER": 303.3103, "MEAN_ANOMALY": 229.1504, "EPHEMERIS_TYPE": 0, "CLASSIFICATION_TYPE": "U", "NORAD_CAT_ID": 66525, "ELEMENT_SET_NO": 999, "REV_AT_EPOCH": 513, "BSTAR": -0.048042534, "MEAN_MOTION_DOT": -0.02007873, "MEAN_MOTION_DDOT": 0}, "tle": {"line1": "1 66525U 25265K   25347.58336806 -.02007873  00000+0 -48043-1 0  9992", "line2": "2 66525  43.0009  49.0878 0001171 303.3103 229.1504 15.44149828  5139"}}, "geometry": {"type": "Point", "coordinates": [70.30896215701976, 22.17821044042775]}}, {"type": "Feature", "properties": {"norad_id": 66526, "name": "STARLINK-35932", "group": "last-30-days", "lat": 41.54616362509453, "lon": 116.24310673595299, "alt_km": 409.13451184063797, "timestamp": "2025-12-14T09:36:21.778267+00:00", "meta": {"OBJECT_NAME": "STARLINK-35932", "OBJECT_ID": "2025-265L", "EPOCH": "2025-12-13T13:10:54.246144", "MEAN_MOTION": 15.50620729, "ECCENTRICITY": 0.00021706, "INCLINATION": 43.0001, "RA_OF_ASC_NODE": 49.2392, "ARG_OF_PERICENTER": 247.0025, "MEAN_ANOMALY": 113.0606, "EPHEMERIS_TYPE": 0, "CLASSIFICATION_TYPE": "U", "NORAD_CAT_ID": 66526, "ELEMENT_SET_NO": 999, "REV_AT_EPOCH": 388, "BSTAR": 0.0021080281, "MEAN_MOTION_DOT": 0.00125518, "MEAN_MOTION_DDOT": 0}, "tle": {"line1": "1 66526U 25265L   25347.54923896  .00125518  00000+0  21080-2 0  9996", "line2": "2 66526  43.0001  49.2392 0002170 247.0025 113.0606 15.50620729  3887"}}, "geometry": {"type": "Point", "coordinates": [116.24310673595299, 41.54616362509453]}}, {"type": "Feature", "properties": {"norad_id": 66527, "name": "STARLINK-35935", "group": "last-30-days", "lat": 41.879273985433, "lon": 118.43871410529263, "alt_km": 410.3274686046361, "timestamp": "2025-12-14T09:36:21.778278+00:00", "meta": {"OBJECT_NAME": "STARLINK-35935", "OBJECT_ID": "2025-265M", "EPOCH": "2025-12-13T11:37:41.143872", "MEAN_MOTION": 15.50556406, "ECCENTRICITY": 0.00046793, "INCLINATION": 43.0007, "RA_OF_ASC_NODE": 49.6123, "ARG_OF_PERICENTER": 286.0879, "MEAN_ANOMALY": 73.9466, "EPHEMERIS_TYPE": 0, "CLASSIFICATION_TYPE": "U", "NORAD_CAT_ID": 66527, "ELEMENT_SET_NO": 999, "REV_AT_EPOCH": 387, "BSTAR": 0.0023034303, "MEAN_MOTION_DOT": 0.00137109, "MEAN_MOTION_DDOT": 0}, "tle": {"line1": "1 66527U 25265M   25347.48450398  .00137109  00000+0  23034-2 0  9992", "line2": "2 66527  43.0007  49.6123 0004679 286.0879  73.9466 15.50556406  3873"}}, "geometry": {"type": "Point", "coordinates": [118.43871410529263, 41.879273985433]}}, {"type": "Feature", "properties": {"norad_id": 66528, "name": "STARLINK-35928", "group": "last-30-days", "lat": 42.23486128545599, "lon": 121.20969323872289, "alt_km": 408.1929369992122, "timestamp": "2025-12-14T09:36:21.778288+00:00", "meta": {"OBJECT_NAME": "STARLINK-35928", "OBJECT_ID": "2025-265N", "EPOCH": "2025-12-13T11:37:09.503328", "MEAN_MOTION": 15.50586867, "ECCENTRICITY": 0.00010216, "INCLINATION": 43.001, "RA_OF_ASC_NODE": 49.6093, "ARG_OF_PERICENTER": 211.1847, "MEAN_ANOMALY": 148.8953, "EPHEMERIS_TYPE": 0, "CLASSIFICATION_TYPE": "U", "NORAD_CAT_ID": 66528, "ELEMENT_SET_NO": 999, "REV_AT_EPOCH": 387, "BSTAR": 0.0019251236, "MEAN_MOTION_DOT": 0.0011429, "MEAN_MOTION_DDOT": 0}, "tle": {"line1": "1 66528U 25265N   25347.48413777  .00114290  00000+0  19251-2 0  9995", "line2": "2 66528  43.0010  49.6093 0001021 211.1847 148.8953 15.50586867  3873"}}, "geometry": {"type": "Point", "coordinates": [121.20969323872289, 42.23486128545599]}}, {"type": "Feature", "properties": {"norad_id": 66529, "name": "STARLINK-35933", "group": "last-30-days", "lat": -2.6244405043929104, "lon": 41.63763592174774, "alt_km": 443.8624173514554, "timestamp": "2025-12-14T09:36:21.778298+00:00", "meta": {"OBJECT_NAME": "STARLINK-35933", "OBJECT_ID": "2025-265P", "EPOCH": "2025-12-13T14:00:03.000384", "MEAN_MOTION": 15.40606027, "ECCENTRICITY": 0.00012075, "INCLINATION": 43.0008, "RA_OF_ASC_NODE": 49.1654, "ARG_OF_PERICENTER": 264.9633, "MEAN_ANOMALY": 235.0366, "EPHEMERIS_TYPE": 0, "CLASSIFICATION_TYPE": "U", "NORAD_CAT_ID": 66529, "ELEMENT_SET_NO": 999, "REV_AT_EPOCH": 513, "BSTAR": 0.0025002641, "MEAN_MOTION_DOT": 0.00105261, "MEAN_MOTION_DDOT": 0}, "tle": {"line1": "1 66529U 25265P   25347.58336806  .00105261  00000+0  25003-2 0  9994", "line2": "2 66529  43.0008  49.1654 0001207 264.9633 235.0366 15.40606027  5132"}}, "geometry": {"type": "Point", "coordinates": [41.63763592174774, -2.6244405043929104]}}, {"type": "Feature", "properties": {"norad_id": 66530, "name": "STARLINK-35961", "group": "last-30-days", "lat": 13.9069112668678, "lon": 59.80603485344727, "alt_km": 442.7111362262094, "timestamp": "2025-12-14T09:36:21.778310+00:00", "meta": {"OBJECT_NAME": "STARLINK-35961", "OBJECT_ID": "2025-265Q", "EPOCH": "2025-12-13T14:00:03.000384", "MEAN_MOTION": 15.40919236, "ECCENTRICITY": 0.00016933, "INCLINATION": 43.0006, "RA_OF_ASC_NODE": 49.105, "ARG_OF_PERICENTER": 299.0873, "MEAN_ANOMALY": 225.6319, "EPHEMERIS_TYPE": 0, "CLASSIFICATION_TYPE": "U", "NORAD_CAT_ID": 66530, "ELEMENT_SET_NO": 999, "REV_AT_EPOCH": 513, "BSTAR": -0.0090711307, "MEAN_MOTION_DOT": -0.00364362, "MEAN_MOTION_DDOT": 0}, "tle": {"line1": "1 66530U 25265Q   25347.58336806 -.00364362  00000+0 -90711-2 0  9995", "line2": "2 66530  43.0006  49.1050 0001693 299.0873 225.6319 15.40919236  5138"}}, "geometry": {"type": "Point", "coordinates": [59.80603485344727, 13.9069112668678]}}, {"type": "Feature", "properties": {"norad_id": 66531, "name": "STARLINK-35960", "group": "last-30-days", "lat": 29.46421423608879, "lon": 81.65470938087344, "alt_km": 439.27759125614466, "timestamp": "2025-12-14T09:36:21.778322+00:00", "meta": {"OBJECT_NAME": "STARLINK-35960", "OBJECT_ID": "2025-265R", "EPOCH": "2025-12-13T14:00:03.000384", "MEAN_MOTION": 15.44256961, "ECCENTRICITY": 0.00011098, "INCLINATION": 43.0005, "RA_OF_ASC_NODE": 49.0567, "ARG_OF_PERICENTER": 286.6226, "MEAN_ANOMALY": 257.9457, "EPHEMERIS_TYPE": 0, "CLASSIFICATION_TYPE": "U", "NORAD_CAT_ID": 66531, "ELEMENT_SET_NO": 999, "REV_AT_EPOCH": 513, "BSTAR": -0.046704718, "MEAN_MOTION_DOT": -0.01964291, "MEAN_MOTION_DDOT": 0}, "tle": {"line1": "1 66531U 25265R   25347.58336806 -.01964291  00000+0 -46705-1 0  9997", "line2": "2 66531  43.0005  49.0567 0001109 286.6226 257.9457 15.44256961  5130"}}, "geometry": {"type": "Point", "coordinates": [81.65470938087344, 29.46421423608879]}}, {"type": "Feature", "properties": {"norad_id": 66532, "name": "STARLINK-35914", "group": "last-30-days", "lat": 41.5784530486182, "lon": 116.44128944958284, "alt_km": 412.0620797823358, "timestamp": "2025-12-14T09:36:21.778333+00:00", "meta": {"OBJECT_NAME": "STARLINK-35914", "OBJECT_ID": "2025-265S", "EPOCH": "2025-12-13T11:36:04.004352", "MEAN_MOTION": 15.48272107, "ECCENTRICITY": 0.0006979, "INCLINATION": 43.0001, "RA_OF_ASC_NODE": 49.6024, "ARG_OF_PERICENTER": 123.512, "MEAN_ANOMALY": 236.6407, "EPHEMERIS_TYPE": 0, "CLASSIFICATION_TYPE": "U", "NORAD_CAT_ID": 66532, "ELEMENT_SET_NO": 999, "REV_AT_EPOCH": 387, "BSTAR": 0.00086174566, "MEAN_MOTION_DOT": 0.00046584, "MEAN_MOTION_DDOT": 0}, "tle": {"line1": "1 66532U 25265S   25347.48337968  .00046584  00000+0  86175-3 0  9997", "line2": "2 66532  43.0001  49.6024 0006979 123.5120 236.6407 15.48272107  3875"}}, "geometry": {"type": "Point", "coordinates": [116.44128944958284, 41.5784530486182]}}, {"type": "Feature", "properties": {"norad_id": 66533, "name": "STARLINK-35707", "group": "last-30-days", "lat": 42.98013124617067, "lon": 134.2935820964867, "alt_km": 409.0262560688607, "timestamp": "2025-12-14T09:36:21.778343+00:00", "meta": {"OBJECT_NAME": "STARLINK-35707", "OBJECT_ID": "2025-265T", "EPOCH": "2025-12-13T11:34:41.093184", "MEAN_MOTION": 15.50607981, "ECCENTRICITY": 0.00022564, "INCLINATION": 43.0006, "RA_OF_ASC_NODE": 49.5952, "ARG_OF_PERICENTER": 272.0384, "MEAN_ANOMALY": 88.0218, "EPHEMERIS_TYPE": 0, "CLASSIFICATION_TYPE": "U", "NORAD_CAT_ID": 66533, "ELEMENT_SET_NO": 999, "REV_AT_EPOCH": 387, "BSTAR": 0.0018709775, "MEAN_MOTION_DOT": 0.00111109, "MEAN_MOTION_DDOT": 0}, "tle": {"line1": "1 66533U 25265T   25347.48242006  .00111109  00000+0  18710-2 0  9991", "line2": "2 66533  43.0006  49.5952 0002256 272.0384  88.0218 15.50607981  3870"}}, "geometry": {"type": "Point", "coordinates": [134.2935820964867, 42.98013124617067]}}, {"type": "Feature", "properties": {"norad_id": 66534, "name": "STARLINK-35976", "group": "last-30-days", "lat": 42.96290472829608, "lon": 136.22362314802086, "alt_km": 409.31333891986014, "timestamp": "2025-12-14T09:36:21.778353+00:00", "meta": {"OBJECT_NAME": "STARLINK-35976", "OBJECT_ID": "2025-265U", "EPOCH": "2025-12-13T13:06:58.108032", "MEAN_MOTION": 15.50504664, "ECCENTRICITY": 0.00019885, "INCLINATION": 43.0008, "RA_OF_ASC_NODE": 49.2164, "ARG_OF_PERICENTER": 262.8387, "MEAN_ANOMALY": 97.2247, "EPHEMERIS_TYPE": 0, "CLASSIFICATION_TYPE": "U", "NORAD_CAT_ID": 66534, "ELEMENT_SET_NO": 999, "REV_AT_EPOCH": 388, "BSTAR": 0.001524729, "MEAN_MOTION_DOT": 0.00089904, "MEAN_MOTION_DDOT": 0}, "tle": {"line1": "1 66534U 25265U   25347.54650588  .00089904  00000+0  15247-2 0  9996", "line2": "2 66534  43.0008  49.2164 0001988 262.8387  97.2247 15.50504664  3885"}}, "geometry": {"type": "Point", "coordinates": [136.22362314802086, 42.96290472829608]}}]}